GLOBALSTAR M024         
1 25883U 99043A   25079.80476838 -.00000098  00000+0 -11945-2 0  9998
2 25883  51.9990 220.0441 0000693 322.9635 208.2549 11.10162226105044
GLOBALSTAR M027         
1 25884U 99043B   25079.79382123 -.00000070  00000+0 -22746-3 0  9992
2 25884  52.0213 295.5501 0020936 207.1149 152.8551 11.04371374131477
GLOBALSTAR M054         
1 25885U 99043C   25079.93563113 -.00000076  00000+0 -11556-3 0  9992
2 25885  52.0129  77.3378 0006066  23.3577 357.9858 11.39211457108995
GLOBALSTAR M053         
1 25886U 99043D   25079.86788851 -.00000059  00000+0  26871-3 0  9999
2 25886  52.0025  19.6948 0003145 297.0043  98.8450 11.27663590109486
GLOBALSTAR M058         
1 25907U 99049A   25080.18229972 -.00000137  00000+0 -71054-3 0  9991
2 25907  51.9970 344.1720 0002649  94.9792 265.1345 11.93196196142243
GLOBALSTAR M050         
1 25908U 99049B   25079.89418900 -.00000080  00000+0  89884-4 0  9996
2 25908  52.0027 359.2124 0008636 213.5668 238.3161 12.07450588137524
GLOBALSTAR M033         
1 25909U 99049C   25079.88778730 -.00000029  00000+0  59913-3 0  9998
2 25909  51.9892 237.1600 0014234  83.3728 276.8739 12.20287419157691
GLOBALSTAR M055         
1 25910U 99049D   25079.88314881 -.00000038  00000+0  47971-3 0  9994
2 25910  52.0002 252.2219 0006229 312.3913  47.6411 12.29423682157423
